[{"OBJECT_NAME":"STARLINK-32803","OBJECT_ID":"2025-032V","EPOCH":"2026-03-08T10:54:52.614432","MEAN_MOTION":15.27597366,"ECCENTRICITY":0.00016596,"INCLINATION":43.0009,"RA_OF_ASC_NODE":342.8063,"ARG_OF_PERICENTER":37.5276,"MEAN_ANOMALY":322.5691,"EPHEMERIS_TYPE":0,"CLASSIFICATION_TYPE":"U","NORAD_CAT_ID":63024,"ELEMENT_SET_NO":999,"REV_AT_EPOCH":6027,"BSTAR":0.0017047347,"MEAN_MOTION_DOT":0.00046973,"MEAN_MOTION_DDOT":0},{"OBJECT_NAME":"STARLINK-36554","OBJECT_ID":"2026-012K","EPOCH":"2026-03-08T17:06:15.871680","MEAN_MOTION":15.27591469,"ECCENTRICITY":6.955e-5,"INCLINATION":42.9934,"RA_OF_ASC_NODE":319.8184,"ARG_OF_PERICENTER":339.2059,"MEAN_ANOMALY":20.8765,"EPHEMERIS_TYPE":0,"CLASSIFICATION_TYPE":"U","NORAD_CAT_ID":67502,"ELEMENT_SET_NO":999,"REV_AT_EPOCH":761,"BSTAR":0.0011969118,"MEAN_MOTION_DOT":0.00032833,"MEAN_MOTION_DDOT":0}]
