STARLINK-32803          
1 63024U 25032V   26067.45477563  .00046973  00000+0  17047-2 0  9998
2 63024  43.0009 342.8063 0001659  37.5276 322.5691 15.27597366 60274
STARLINK-36554          
1 67502U 26012K   26067.71268370  .00032833  00000+0  11969-2 0  9992
2 67502  42.9934 319.8184 0000695 339.2059  20.8765 15.27591469  7619
